KUIPER-00089            
1 64834U 25151U   25312.83335647  .00037483  00000+0  49440-2 0  9998
2 64834  51.9005  99.8371 0001148 275.4499  10.3580 14.79713468  5268
KUIPER-00090            
1 64835U 25151V   25312.83335647  .00050261  00000+0  31727-2 0  9997
2 64835  51.8931  93.7480 0004108 270.9484  71.1315 15.08586897  4934
KUIPER-00091            
1 64836U 25151W   25312.83335647 -.01407331  00000+0 -19165+0 0  9994
2 64836  51.8985  97.4826 0008404 247.3959 317.7959 14.81559222  4280
KUIPER-00092            
1 64837U 25151X   25312.78539183  .00005351  00000+0  71907-3 0  9999
2 64837  51.9011 105.1617 0006418 195.6284 164.4481 14.80591431 18757
KUIPER-00093            
1 64838U 25151Y   25312.78824975 -.00016263  00000+0 -21146-2 0  9991
2 64838  51.8987 107.7018 0013926 205.4293 154.5986 14.79749626 17505
KUIPER-00094            
1 64839U 25151Z   25312.77475704  .00012558  00000+0  91998-3 0  9997
2 64839  51.8891  98.3716 0005729 225.8132 134.2370 15.03856667 17638
KUIPER-00081            
1 65132U 25171A   25312.34194772  .00072307  00000+0  18642-2 0  9994
2 65132  51.8743 335.4954 0005998  73.0361 287.1283 15.38514179 14911
KUIPER-00088            
1 65133U 25171B   25312.83335647 -.01404166  00000+0 -15982+0 0  9993
2 65133  51.8979 340.2210 0008133  74.3248 223.8637 14.88864596  5740
